start=new Date('2021-11-13T00:00:00.000Z').valueOf();
sats=[{"BSTAR":"0.00002815900000","SITE":"AFETR","LAUNCH_DATE":"2021-05-26","GP_ID":"189647182","PERIOD":"95.592","OBJECT_NAME":"STARLINK-2701","PERIAPSIS":"546.227","MEAN_MOTION_DDOT":"0.0000000000000","RCS_SIZE":"LARGE","ECCENTRICITY":"0.00014080","EPOCH":"2021-11-12T20:56:44.890656","EPHEMERIS_TYPE":"0","OBJECT_TYPE":"PAYLOAD","ELEMENT_SET_NO":"999","INCLINATION":"53.0566","SEMIMAJOR_AXIS":"6925.337","FILE":"3213639","NORAD_CAT_ID":"48656","MEAN_ANOMALY":"289.7111","TLE_LINE1":"1 48656U 21044U   21316.87274179  .00000138  00000-0  28159-4 0  9999","OBJECT_ID":"2021-044U","ARG_OF_PERICENTER":"70.4030","CLASSIFICATION_TYPE":"U","DECAY_DATE":null,"REV_AT_EPOCH":"2589","COUNTRY_CODE":"US","MEAN_MOTION_DOT":"0.00000138","TLE_LINE2":"2 48656  53.0566   4.7054 0001408  70.4030 289.7111 15.06403794 25895","MEAN_MOTION":"15.06403794","CENTER_NAME":"EARTH","TIME_SYSTEM":"UTC","RA_OF_ASC_NODE":"4.7054","REF_FRAME":"TEME","APOAPSIS":"548.177","MEAN_ELEMENT_THEORY":"SGP4"},{"NORAD_CAT_ID":"48657","MEAN_ANOMALY":"298.9667","FILE":"3213639","OBJECT_ID":"2021-044V","ARG_OF_PERICENTER":"61.1483","TLE_LINE1":"1 48657U 21044V   21316.86906892  .00000433  00000-0  47946-4 0  9996","DECAY_DATE":null,"CLASSIFICATION_TYPE":"U","MEAN_MOTION_DOT":"0.00000433","COUNTRY_CODE":"US","REV_AT_EPOCH":"2589","TIME_SYSTEM":"UTC","CENTER_NAME":"EARTH","TLE_LINE2":"2 48657  53.0566   4.7227 0001597  61.1483 298.9667 15.06406475 25893","MEAN_MOTION":"15.06406475","APOAPSIS":"548.300","REF_FRAME":"TEME","RA_OF_ASC_NODE":"4.7227","MEAN_ELEMENT_THEORY":"SGP4","BSTAR":"0.00004794600000","LAUNCH_DATE":"2021-05-26","GP_ID":"189647078","PERIOD":"95.592","SITE":"AFETR","OBJECT_NAME":"STARLINK-2734","RCS_SIZE":"LARGE","MEAN_MOTION_DDOT":"0.0000000000000","PERIAPSIS":"546.088","EPHEMERIS_TYPE":"0","EPOCH":"2021-11-12T20:51:27.554688","ECCENTRICITY":"0.00015970","OBJECT_TYPE":"PAYLOAD","ELEMENT_SET_NO":"999","INCLINATION":"53.0566","SEMIMAJOR_AXIS":"6925.329"},{"BSTAR":"-0.00074872000000","SITE":"AFETR","PERIOD":"95.589","GP_ID":"189646966","LAUNCH_DATE":"2021-05-26","OBJECT_NAME":"STARLINK-2647","PERIAPSIS":"546.175","RCS_SIZE":"LARGE","MEAN_MOTION_DDOT":"0.0000000000000","ECCENTRICITY":"0.00013010","EPHEMERIS_TYPE":"0","EPOCH":"2021-11-12T20:46:07.728672","ELEMENT_SET_NO":"999","OBJECT_TYPE":"PAYLOAD","SEMIMAJOR_AXIS":"6925.211","INCLINATION":"53.0578","FILE":"3213639","NORAD_CAT_ID":"48658","MEAN_ANOMALY":"308.0305","ARG_OF_PERICENTER":"52.0801","OBJECT_ID":"2021-044W","TLE_LINE1":"1 48658U 21044W   21316.86536723 -.00011430  00000-0 -74872-3 0  9997","CLASSIFICATION_TYPE":"U","DECAY_DATE":null,"REV_AT_EPOCH":"2589","MEAN_MOTION_DOT":"-0.00011430","COUNTRY_CODE":"US","CENTER_NAME":"EARTH","MEAN_MOTION":"15.06445045","TLE_LINE2":"2 48658  53.0578   4.7527 0001301  52.0801 308.0305 15.06445045 25894","TIME_SYSTEM":"UTC","RA_OF_ASC_NODE":"4.7527","REF_FRAME":"TEME","APOAPSIS":"547.976","MEAN_ELEMENT_THEORY":"SGP4"},{"DECAY_DATE":null,"CLASSIFICATION_TYPE":"U","NORAD_CAT_ID":"48659","MEAN_ANOMALY":"285.2143","FILE":"3213639","TLE_LINE1":"1 48659U 21044X   21316.86171333  .00011405  00000-0  78303-3 0  9993","ARG_OF_PERICENTER":"74.9047","OBJECT_ID":"2021-044X","APOAPSIS":"548.432","RA_OF_ASC_NODE":"4.7627","REF_FRAME":"TEME","MEAN_ELEMENT_THEORY":"SGP4","COUNTRY_CODE":"US","MEAN_MOTION_DOT":"0.00011405","REV_AT_EPOCH":"2589","TIME_SYSTEM":"UTC","MEAN_MOTION":"15.06412901","TLE_LINE2":"2 48659  53.0561   4.7627 0001817  74.9047 285.2143 15.06412901 25896","CENTER_NAME":"EARTH","OBJECT_NAME":"STARLINK-2717","BSTAR":"0.00078303000000","PERIOD":"95.591","GP_ID":"189646986","LAUNCH_DATE":"2021-05-26","SITE":"AFETR","ELEMENT_SET_NO":"999","OBJECT_TYPE":"PAYLOAD","INCLINATION":"53.0561","SEMIMAJOR_AXIS":"6925.309","MEAN_MOTION_DDOT":"0.0000000000000","RCS_SIZE":"LARGE","PERIAPSIS":"545.916","EPOCH":"2021-11-12T20:40:52.031712","EPHEMERIS_TYPE":"0","ECCENTRICITY":"0.00018170"},{"MEAN_ELEMENT_THEORY":"SGP4","RA_OF_ASC_NODE":"4.7744","REF_FRAME":"TEME","APOAPSIS":"548.254","TLE_LINE2":"2 48660  53.0568   4.7744 0001520  69.1098 291.0054 15.06403945 25892","MEAN_MOTION":"15.06403945","CENTER_NAME":"EARTH","TIME_SYSTEM":"UTC","REV_AT_EPOCH":"2589","COUNTRY_CODE":"US","MEAN_MOTION_DOT":"0.00000306","CLASSIFICATION_TYPE":"U","DECAY_DATE":null,"TLE_LINE1":"1 48660U 21044Y   21316.85799919  .00000306  00000-0  39460-4 0  9990","OBJECT_ID":"2021-044Y","ARG_OF_PERICENTER":"69.1098","FILE":"3213639","NORAD_CAT_ID":"48660","MEAN_ANOMALY":"291.0054","INCLINATION":"53.0568","SEMIMAJOR_AXIS":"6925.336","ELEMENT_SET_NO":"999","OBJECT_TYPE":"PAYLOAD","ECCENTRICITY":"0.00015200","EPOCH":"2021-11-12T20:35:31.130016","EPHEMERIS_TYPE":"0","PERIAPSIS":"546.149","MEAN_MOTION_DDOT":"0.0000000000000","RCS_SIZE":"LARGE","OBJECT_NAME":"STARLINK-2688","SITE":"AFETR","PERIOD":"95.592","GP_ID":"189647565","LAUNCH_DATE":"2021-05-26","BSTAR":"0.00003946000000"},{"EPHEMERIS_TYPE":"0","EPOCH":"2021-11-12T14:14:40.539264","ECCENTRICITY":"0.00013910","RCS_SIZE":"LARGE","MEAN_MOTION_DDOT":"0.0000000000000","PERIAPSIS":"546.191","SEMIMAJOR_AXIS":"6925.290","INCLINATION":"53.0559","OBJECT_TYPE":"PAYLOAD","ELEMENT_SET_NO":"999","LAUNCH_DATE":"2021-05-26","GP_ID":"189647462","PERIOD":"95.591","SITE":"AFETR","BSTAR":"-0.00024144000000","OBJECT_NAME":"STARLINK-2708","TIME_SYSTEM":"UTC","CENTER_NAME":"EARTH","TLE_LINE2":"2 48661  53.0559 355.9520 0001391  79.0651 281.0495 15.06419230 25990","MEAN_MOTION":"15.06419230","MEAN_MOTION_DOT":"-0.00003878","COUNTRY_CODE":"US","REV_AT_EPOCH":"2599","MEAN_ELEMENT_THEORY":"SGP4","APOAPSIS":"548.118","RA_OF_ASC_NODE":"355.9520","REF_FRAME":"TEME","ARG_OF_PERICENTER":"79.0651","OBJECT_ID":"2021-044Z","TLE_LINE1":"1 48661U 21044Z   21316.59352476 -.00003878  00000-0 -24144-3 0  9996","MEAN_ANOMALY":"281.0495","NORAD_CAT_ID":"48661","FILE":"3213639","DECAY_DATE":null,"CLASSIFICATION_TYPE":"U"},{"OBJECT_NAME":"STARLINK-2726","BSTAR":"-0.00008980100000","SITE":"AFETR","GP_ID":"189620480","LAUNCH_DATE":"2021-05-26","PERIOD":"95.592","ELEMENT_SET_NO":"999","OBJECT_TYPE":"PAYLOAD","SEMIMAJOR_AXIS":"6925.361","INCLINATION":"53.0575","PERIAPSIS":"546.355","RCS_SIZE":"LARGE","MEAN_MOTION_DDOT":"0.0000000000000","ECCENTRICITY":"0.00012580","EPHEMERIS_TYPE":"0","EPOCH":"2021-11-12T12:33:51.072192","CLASSIFICATION_TYPE":"U","DECAY_DATE":null,"FILE":"3213471","NORAD_CAT_ID":"48662","MEAN_ANOMALY":"283.4909","ARG_OF_PERICENTER":"76.6220","OBJECT_ID":"2021-044AA","TLE_LINE1":"1 48662U 21044AA  21316.52350778 -.00001619  00000-0 -89801-4 0  9996","RA_OF_ASC_NODE":"356.2729","REF_FRAME":"TEME","APOAPSIS":"548.098","MEAN_ELEMENT_THEORY":"SGP4","REV_AT_EPOCH":"2682","MEAN_MOTION_DOT":"-0.00001619","COUNTRY_CODE":"US","CENTER_NAME":"EARTH","MEAN_MOTION":"15.06395820","TLE_LINE2":"2 48662  53.0575 356.2729 0001258  76.6220 283.4909 15.06395820 26828","TIME_SYSTEM":"UTC"},{"BSTAR":"-0.00010137000000","PERIOD":"95.592","GP_ID":"189647370","LAUNCH_DATE":"2021-05-26","SITE":"AFETR","OBJECT_NAME":"STARLINK-2667","MEAN_MOTION_DDOT":"0.0000000000000","RCS_SIZE":"LARGE","PERIAPSIS":"546.357","EPOCH":"2021-11-12T20:26:14.755488","EPHEMERIS_TYPE":"0","ECCENTRICITY":"0.00012400","OBJECT_TYPE":"PAYLOAD","ELEMENT_SET_NO":"999","INCLINATION":"53.0565","SEMIMAJOR_AXIS":"6925.351","MEAN_ANOMALY":"286.3442","NORAD_CAT_ID":"48663","FILE":"3213639","TLE_LINE1":"1 48663U 21044AB  21316.85155967 -.00001791  00000-0 -10137-3 0  9992","OBJECT_ID":"2021-044AB","ARG_OF_PERICENTER":"73.7683","DECAY_DATE":null,"CLASSIFICATION_TYPE":"U","COUNTRY_CODE":"US","MEAN_MOTION_DOT":"-0.00001791","REV_AT_EPOCH":"2603","TIME_SYSTEM":"UTC","MEAN_MOTION":"15.06399326","TLE_LINE2":"2 48663  53.0565 354.7944 0001240  73.7683 286.3442 15.06399326 26034","CENTER_NAME":"EARTH","APOAPSIS":"548.074","REF_FRAME":"TEME","RA_OF_ASC_NODE":"354.7944","MEAN_ELEMENT_THEORY":"SGP4"},{"REF_FRAME":"TEME","RA_OF_ASC_NODE":"354.8178","APOAPSIS":"548.121","MEAN_ELEMENT_THEORY":"SGP4","REV_AT_EPOCH":"2603","MEAN_MOTION_DOT":"0.00000157","COUNTRY_CODE":"US","CENTER_NAME":"EARTH","TLE_LINE2":"2 48664  53.0574 354.8178 0001321  70.2278 289.8854 15.06402279 26034","MEAN_MOTION":"15.06402279","TIME_SYSTEM":"UTC","CLASSIFICATION_TYPE":"U","DECAY_DATE":null,"FILE":"3213639","NORAD_CAT_ID":"48664","MEAN_ANOMALY":"289.8854","ARG_OF_PERICENTER":"70.2278","OBJECT_ID":"2021-044AC","TLE_LINE1":"1 48664U 21044AC  21316.84786137  .00000157  00000-0  29426-4 0  9996","OBJECT_TYPE":"PAYLOAD","ELEMENT_SET_NO":"999","SEMIMAJOR_AXIS":"6925.342","INCLINATION":"53.0574","PERIAPSIS":"546.292","RCS_SIZE":"LARGE","MEAN_MOTION_DDOT":"0.0000000000000","ECCENTRICITY":"0.00013210","EPHEMERIS_TYPE":"0","EPOCH":"2021-11-12T20:20:55.222368","OBJECT_NAME":"STARLINK-2709","BSTAR":"0.00002942600000","SITE":"AFETR","LAUNCH_DATE":"2021-05-26","GP_ID":"189647183","PERIOD":"95.592"},{"INCLINATION":"53.0572","SEMIMAJOR_AXIS":"6925.368","ELEMENT_SET_NO":"999","OBJECT_TYPE":"PAYLOAD","ECCENTRICITY":"0.00012970","EPOCH":"2021-11-12T14:18:38.648160","EPHEMERIS_TYPE":"0","PERIAPSIS":"546.335","MEAN_MOTION_DDOT":"0.0000000000000","RCS_SIZE":"LARGE","OBJECT_NAME":"STARLINK-2653","SITE":"AFETR","GP_ID":"189647079","PERIOD":"95.593","LAUNCH_DATE":"2021-05-26","BSTAR":"-0.00009761600000","MEAN_ELEMENT_THEORY":"SGP4","REF_FRAME":"TEME","RA_OF_ASC_NODE":"355.9462","APOAPSIS":"548.131","TLE_LINE2":"2 48665  53.0572 355.9462 0001297  81.5834 278.5302 15.06393669 25995","MEAN_MOTION":"15.06393669","CENTER_NAME":"EARTH","TIME_SYSTEM":"UTC","REV_AT_EPOCH":"2599","COUNTRY_CODE":"US","MEAN_MOTION_DOT":"-0.00001735","CLASSIFICATION_TYPE":"U","DECAY_DATE":null,"TLE_LINE1":"1 48665U 21044AD  21316.59628065 -.00001735  00000-0 -97616-4 0  9995","OBJECT_ID":"2021-044AD","ARG_OF_PERICENTER":"81.5834","FILE":"3213639","NORAD_CAT_ID":"48665","MEAN_ANOMALY":"278.5302"}];
